<?xml version="1.0" encoding="utf-8" ?>
<kml xmlns="http://www.opengis.net/kml/2.2">
<Document id="root_doc">
<Folder><name>solar_panel_0</name>
  <Placemark id="solar_panel_0.1">
	<Style><LineStyle><color>ff0000ff</color></LineStyle><PolyStyle><fill>0</fill></PolyStyle></Style>
      <Polygon><outerBoundaryIs><LinearRing><coordinates>75.5221971522402,18.6711398175597 75.5221972736709,18.6711794827034 75.5212431614978,18.6711821336514 75.521243040289,18.6711424685016 75.522007505671,18.6711403448672 75.5220073673829,18.6710951567306 75.5221970139018,18.6710946294245 75.5221971522402,18.6711398175597</coordinates></LinearRing></outerBoundaryIs></Polygon>
  </Placemark>
</Folder>
</Document></kml>
